[
    {
        "OBJECT_NAME": "STARLINK-5699",
        "OBJECT_ID": "2023-015A",
        "EPOCH": "2025-12-12T07:15:42.895584",
        "MEAN_MOTION": 15.02525157,
        "ECCENTRICITY": 8.987e-05,
        "INCLINATION": 43.0025,
        "RA_OF_ASC_NODE": 81.2614,
        "ARG_OF_PERICENTER": 261.3389,
        "MEAN_ANOMALY": 98.7351,
        "EPHEMERIS_TYPE": 0,
        "CLASSIFICATION_TYPE": "U",
        "NORAD_CAT_ID": 55449,
        "ELEMENT_SET_NO": 999,
        "REV_AT_EPOCH": 15854,
        "BSTAR": -5.7041504e-05,
        "MEAN_MOTION_DOT": -9.74e-06,
        "MEAN_MOTION_DDOT": 0.0
    },
    {
        "OBJECT_NAME": "STARLINK-5749",
        "OBJECT_ID": "2023-020A",
        "EPOCH": "2025-12-11T17:31:14.356128",
        "MEAN_MOTION": 15.02541224,
        "ECCENTRICITY": 0.0001408,
        "INCLINATION": 43.0013,
        "RA_OF_ASC_NODE": 122.9528,
        "ARG_OF_PERICENTER": 274.0119,
        "MEAN_ANOMALY": 86.0563,
        "EPHEMERIS_TYPE": 0,
        "CLASSIFICATION_TYPE": "U",
        "NORAD_CAT_ID": 55569,
        "ELEMENT_SET_NO": 999,
        "REV_AT_EPOCH": 15675,
        "BSTAR": 0.00012010333,
        "MEAN_MOTION_DOT": 1.419e-05,
        "MEAN_MOTION_DDOT": 0.0
    },
    {
        "OBJECT_NAME": "STARLINK-5741",
        "OBJECT_ID": "2023-020P",
        "EPOCH": "2025-12-11T17:18:50.336352",
        "MEAN_MOTION": 15.02536042,
        "ECCENTRICITY": 0.00012831,
        "INCLINATION": 43.0028,
        "RA_OF_ASC_NODE": 109.9176,
        "ARG_OF_PERICENTER": 268.6312,
        "MEAN_ANOMALY": 91.4384,
        "EPHEMERIS_TYPE": 0,
        "CLASSIFICATION_TYPE": "U",
        "NORAD_CAT_ID": 55582,
        "ELEMENT_SET_NO": 999,
        "REV_AT_EPOCH": 15583,
        "BSTAR": -2.426269e-05,
        "MEAN_MOTION_DOT": -5.31e-06,
        "MEAN_MOTION_DDOT": 0.0
    },
    {
        "OBJECT_NAME": "STARLINK-5484",
        "OBJECT_ID": "2023-021A",
        "EPOCH": "2025-12-12T06:49:39.787392",
        "MEAN_MOTION": 14.98323582,
        "ECCENTRICITY": 0.0003137,
        "INCLINATION": 70.0008,
        "RA_OF_ASC_NODE": 64.9224,
        "ARG_OF_PERICENTER": 270.8387,
        "MEAN_ANOMALY": 89.2413,
        "EPHEMERIS_TYPE": 0,
        "CLASSIFICATION_TYPE": "U",
        "NORAD_CAT_ID": 55628,
        "ELEMENT_SET_NO": 999,
        "REV_AT_EPOCH": 15520,
        "BSTAR": -0.00013061833,
        "MEAN_MOTION_DOT": -1.651e-05,
        "MEAN_MOTION_DDOT": 0.0
    },
    {
        "OBJECT_NAME": "STARLINK-5267",
        "OBJECT_ID": "2023-021AD",
        "EPOCH": "2025-12-12T07:31:04.621152",
        "MEAN_MOTION": 14.98316393,
        "ECCENTRICITY": 0.00028104,
        "INCLINATION": 70.001,
        "RA_OF_ASC_NODE": 24.8746,
        "ARG_OF_PERICENTER": 261.3951,
        "MEAN_ANOMALY": 98.689,
        "EPHEMERIS_TYPE": 0,
        "CLASSIFICATION_TYPE": "U",
        "NORAD_CAT_ID": 55655,
        "ELEMENT_SET_NO": 999,
        "REV_AT_EPOCH": 15618,
        "BSTAR": -6.9949245e-05,
        "MEAN_MOTION_DOT": -9.27e-06,
        "MEAN_MOTION_DDOT": 0.0
    },
    {
        "OBJECT_NAME": "STARLINK-5300",
        "OBJECT_ID": "2023-021BA",
        "EPOCH": "2025-12-12T06:42:52.394112",
        "MEAN_MOTION": 14.98340966,
        "ECCENTRICITY": 0.00028137,
        "INCLINATION": 70.0031,
        "RA_OF_ASC_NODE": 4.8863,
        "ARG_OF_PERICENTER": 271.6884,
        "MEAN_ANOMALY": 88.3952,
        "EPHEMERIS_TYPE": 0,
        "CLASSIFICATION_TYPE": "U",
        "NORAD_CAT_ID": 55676,
        "ELEMENT_SET_NO": 999,
        "REV_AT_EPOCH": 15668,
        "BSTAR": 0.00048957535,
        "MEAN_MOTION_DOT": 5.755e-05,
        "MEAN_MOTION_DDOT": 0.0
    },
    {
        "OBJECT_NAME": "STARLINK-5611",
        "OBJECT_ID": "2023-028W",
        "EPOCH": "2025-12-11T17:37:07.158432",
        "MEAN_MOTION": 14.98334754,
        "ECCENTRICITY": 0.00030594,
        "INCLINATION": 70.0012,
        "RA_OF_ASC_NODE": 86.4129,
        "ARG_OF_PERICENTER": 274.5138,
        "MEAN_ANOMALY": 85.5672,
        "EPHEMERIS_TYPE": 0,
        "CLASSIFICATION_TYPE": "U",
        "NORAD_CAT_ID": 55761,
        "ELEMENT_SET_NO": 999,
        "REV_AT_EPOCH": 15335,
        "BSTAR": 2.8171216e-05,
        "MEAN_MOTION_DOT": 2.43e-06,
        "MEAN_MOTION_DDOT": 0.0
    },
    {
        "OBJECT_NAME": "STARLINK-5856",
        "OBJECT_ID": "2023-037A",
        "EPOCH": "2025-12-11T21:38:33.071424",
        "MEAN_MOTION": 14.98336659,
        "ECCENTRICITY": 0.000278,
        "INCLINATION": 70.0043,
        "RA_OF_ASC_NODE": 165.9525,
        "ARG_OF_PERICENTER": 265.6889,
        "MEAN_ANOMALY": 94.3952,
        "EPHEMERIS_TYPE": 0,
        "CLASSIFICATION_TYPE": "U",
        "NORAD_CAT_ID": 55914,
        "ELEMENT_SET_NO": 999,
        "REV_AT_EPOCH": 15102,
        "BSTAR": 3.3063e-05,
        "MEAN_MOTION_DOT": 3.02e-06,
        "MEAN_MOTION_DDOT": 0.0
    },
    {
        "OBJECT_NAME": "STARLINK-5905",
        "OBJECT_ID": "2023-042A",
        "EPOCH": "2025-12-12T06:05:54.541536",
        "MEAN_MOTION": 15.02539589,
        "ECCENTRICITY": 0.00013069,
        "INCLINATION": 43.0023,
        "RA_OF_ASC_NODE": 171.5738,
        "ARG_OF_PERICENTER": 267.9195,
        "MEAN_ANOMALY": 92.1497,
        "EPHEMERIS_TYPE": 0,
        "CLASSIFICATION_TYPE": "U",
        "NORAD_CAT_ID": 55986,
        "ELEMENT_SET_NO": 999,
        "REV_AT_EPOCH": 15057,
        "BSTAR": 7.8431748e-05,
        "MEAN_MOTION_DOT": 8.56e-06,
        "MEAN_MOTION_DDOT": 0.0
    },
    {
        "OBJECT_NAME": "STARLINK-5957",
        "OBJECT_ID": "2023-042K",
        "EPOCH": "2025-12-11T20:43:19.195104",
        "MEAN_MOTION": 15.93962333,
        "ECCENTRICITY": 0.00019662,
        "INCLINATION": 42.9929,
        "RA_OF_ASC_NODE": 155.658,
        "ARG_OF_PERICENTER": 264.0893,
        "MEAN_ANOMALY": 95.9759,
        "EPHEMERIS_TYPE": 0,
        "CLASSIFICATION_TYPE": "U",
        "NORAD_CAT_ID": 55995,
        "ELEMENT_SET_NO": 999,
        "REV_AT_EPOCH": 14990,
        "BSTAR": 0.0031644198,
        "MEAN_MOTION_DOT": 0.01195824,
        "MEAN_MOTION_DDOT": 0.00066809809
    },
    {
        "OBJECT_NAME": "STARLINK-6109",
        "OBJECT_ID": "2023-046B",
        "EPOCH": "2025-12-12T04:01:26.831424",
        "MEAN_MOTION": 15.02452777,
        "ECCENTRICITY": 3.82e-05,
        "INCLINATION": 43.0033,
        "RA_OF_ASC_NODE": 274.7599,
        "ARG_OF_PERICENTER": 271.6791,
        "MEAN_ANOMALY": 88.4007,
        "EPHEMERIS_TYPE": 0,
        "CLASSIFICATION_TYPE": "U",
        "NORAD_CAT_ID": 56094,
        "ELEMENT_SET_NO": 999,
        "REV_AT_EPOCH": 14889,
        "BSTAR": 0.0015051765,
        "MEAN_MOTION_DOT": 0.00020142,
        "MEAN_MOTION_DDOT": 0.0
    },
    {
        "OBJECT_NAME": "STARLINK-6121",
        "OBJECT_ID": "2023-046AP",
        "EPOCH": "2025-12-12T00:42:18.270432",
        "MEAN_MOTION": 15.02529389,
        "ECCENTRICITY": 5.262e-05,
        "INCLINATION": 43.0039,
        "RA_OF_ASC_NODE": 210.5678,
        "ARG_OF_PERICENTER": 294.469,
        "MEAN_ANOMALY": 65.6098,
        "EPHEMERIS_TYPE": 0,
        "CLASSIFICATION_TYPE": "U",
        "NORAD_CAT_ID": 56129,
        "ELEMENT_SET_NO": 999,
        "REV_AT_EPOCH": 14962,
        "BSTAR": -0.0002007183,
        "MEAN_MOTION_DOT": -2.913e-05,
        "MEAN_MOTION_DDOT": 0.0
    }
]