STARLINK-5699           
1 55449U 23015A   25346.30257981 -.00000974  00000+0 -57042-4 0  9996
2 55449  43.0025  81.2614 0000898 261.3389  98.7351 15.02525157158541
STARLINK-5749           
1 55569U 23020A   25345.73002727  .00001419  00000+0  12010-3 0  9995
2 55569  43.0013 122.9528 0001408 274.0119  86.0563 15.02541224156757
STARLINK-5741           
1 55582U 23020P   25345.72141593 -.00000531  00000+0 -24263-4 0  9994
2 55582  43.0028 109.9176 0001283 268.6312  91.4384 15.02536042155838
STARLINK-5484           
1 55628U 23021A   25346.28448828 -.00001651  00000+0 -13062-3 0  9997
2 55628  70.0008  64.9224 0003137 270.8387  89.2413 14.98323582155204
STARLINK-5267           
1 55655U 23021AD  25346.31324793 -.00000927  00000+0 -69949-4 0  9996
2 55655  70.0010  24.8746 0002810 261.3951  98.6890 14.98316393156183
STARLINK-5300           
1 55676U 23021BA  25346.27977308  .00005755  00000+0  48958-3 0  9998
2 55676  70.0031   4.8863 0002813 271.6884  88.3952 14.98340966156682
STARLINK-5611           
1 55761U 23028W   25345.73411063  .00000243  00000+0  28171-4 0  9994
2 55761  70.0012  86.4129 0003059 274.5138  85.5672 14.98334754153351
STARLINK-5856           
1 55914U 23037A   25345.90177166  .00000302  00000+0  33063-4 0  9998
2 55914  70.0043 165.9525 0002780 265.6889  94.3952 14.98336659151029
STARLINK-5905           
1 55986U 23042A   25346.25410349  .00000856  00000+0  78432-4 0  9998
2 55986  43.0023 171.5738 0001306 267.9195  92.1497 15.02539589150575
STARLINK-5957           
1 55995U 23042K   25345.86341661  .01195824  66810-3  31644-2 0  9992
2 55995  42.9929 155.6580 0001966 264.0893  95.9759 15.93962333149905
STARLINK-6109           
1 56094U 23046B   25346.16767166  .00020142  00000+0  15052-2 0  9992
2 56094  43.0033 274.7599 0000382 271.6791  88.4007 15.02452777148895
STARLINK-6121           
1 56129U 23046AP  25346.02937813 -.00002913  00000+0 -20072-3 0  9991
2 56129  43.0039 210.5678 0000526 294.4690  65.6098 15.02529389149620
